[{"OBJECT_NAME":"STARLINK-6031","OBJECT_ID":"2023-078AV","EPOCH":"2026-03-09T23:18:26.902080","MEAN_MOTION":14.98332152,"ECCENTRICITY":0.00025154,"INCLINATION":70.0012,"RA_OF_ASC_NODE":343.6972,"ARG_OF_PERICENTER":270.1181,"MEAN_ANOMALY":89.969,"EPHEMERIS_TYPE":0,"CLASSIFICATION_TYPE":"U","NORAD_CAT_ID":56810,"ELEMENT_SET_NO":999,"REV_AT_EPOCH":15272,"BSTAR":2.14396e-6,"MEAN_MOTION_DOT":-6.7e-7,"MEAN_MOTION_DDOT":0},{"OBJECT_NAME":"FREGAT DEB","OBJECT_ID":"2011-037P","EPOCH":"2026-03-09T04:42:36.590112","MEAN_MOTION":12.5577086,"ECCENTRICITY":0.13064238,"INCLINATION":51.4197,"RA_OF_ASC_NODE":10.8846,"ARG_OF_PERICENTER":84.5839,"MEAN_ANOMALY":290.2261,"EPHEMERIS_TYPE":0,"CLASSIFICATION_TYPE":"U","NORAD_CAT_ID":45620,"ELEMENT_SET_NO":999,"REV_AT_EPOCH":24879,"BSTAR":0.0060807936,"MEAN_MOTION_DOT":0.00041085,"MEAN_MOTION_DDOT":0}]
